{"type": "FeatureCollection", "features": [ {"type": "Feature", "properties": {"norad_id": 28649, "name": "IRS-P5 (CARTOSAT-1)", "group": "resource", "lat": 43.64990592106309, "lon": -3.1457612730959186, "alt_km": 591.9858954709716, "timestamp": "2025-12-03T06:58:42.897757+00:00", "meta": {"OBJECT_NAME": "IRS-P5 (CARTOSAT-1)", "OBJECT_ID": "2005-017A", "EPOCH": "2025-12-02T19:30:06.395328", "MEAN_MOTION": 14.90347845, "ECCENTRICITY": 0.0001788, "INCLINATION": 97.5504, "RA_OF_ASC_NODE": 3.6663, "ARG_OF_PERICENTER": 53.3165, "MEAN_ANOMALY": 306.8217, "EPHEMERIS_TYPE": 0, "CLASSIFICATION_TYPE": "U", "NORAD_CAT_ID": 28649, "ELEMENT_SET_NO": 999, "REV_AT_EPOCH": 11456, "BSTAR": 0.00026632, "MEAN_MOTION_DOT": 2.538e-05, "MEAN_MOTION_DDOT": 0}, "tle": {"line1": "1 28649U 05017A   25336.81257402  .00002538  00000+0  26632-3 0  9999", "line2": "2 28649  97.5504   3.6663 0001788  53.3165 306.8217 14.90347845114561"}}, "geometry": {"type": "Point", "coordinates": [-3.1457612730959186, 43.64990592106309]}}, {"type": "Feature", "properties": {"norad_id": 28893, "name": "SINAH 1", "group": "resource", "lat": -34.47975826455056, "lon": -79.90255316007196, "alt_km": 679.8903746510887, "timestamp": "2025-12-03T06:58:42.897768+00:00", "meta": {"OBJECT_NAME": "SINAH 1", "OBJECT_ID": "2005-043D", "EPOCH": "2025-12-02T20:09:32.009184", "MEAN_MOTION": 14.63943829, "ECCENTRICITY": 0.0014791, "INCLINATION": 98.2599, "RA_OF_ASC_NODE": 105.3711, "ARG_OF_PERICENTER": 166.7869, "MEAN_ANOMALY": 193.3724, "EPHEMERIS_TYPE": 0, "CLASSIFICATION_TYPE": "U", "NORAD_CAT_ID": 28893, "ELEMENT_SET_NO": 999, "REV_AT_EPOCH": 7179, "BSTAR": 0.00014394, "MEAN_MOTION_DOT": 7.05e-06, "MEAN_MOTION_DDOT": 0}, "tle": {"line1": "1 28893U 05043D   25336.83995381  .00000705  00000+0  14394-3 0  9992", "line2": "2 28893  98.2599 105.3711 0014791 166.7869 193.3724 14.63943829 71799"}}, "geometry": {"type": "Point", "coordinates": [-79.90255316007196, -34.47975826455056]}}, {"type": "Feature", "properties": {"norad_id": 29079, "name": "EROS B", "group": "resource", "lat": -15.84370684067704, "lon": 95.53926111423574, "alt_km": 379.9430126079087, "timestamp": "2025-12-03T06:58:42.897779+00:00", "meta": {"OBJECT_NAME": "EROS B", "OBJECT_ID": "2006-014A", "EPOCH": "2025-12-02T20:18:05.289120", "MEAN_MOTION": 15.64448606, "ECCENTRICITY": 0.0002315, "INCLINATION": 97.3485, "RA_OF_ASC_NODE": 92.9768, "ARG_OF_PERICENTER": 234.1521, "MEAN_ANOMALY": 125.9524, "EPHEMERIS_TYPE": 0, "CLASSIFICATION_TYPE": "U", "NORAD_CAT_ID": 29079, "ELEMENT_SET_NO": 999, "REV_AT_EPOCH": 8925, "BSTAR": 0.001654, "MEAN_MOTION_DOT": 0.0016143, "MEAN_MOTION_DDOT": 0}, "tle": {"line1": "1 29079U 06014A   25336.84589455  .00161430  00000+0  16540-2 0  9997", "line2": "2 29079  97.3485  92.9768 0002315 234.1521 125.9524 15.64448606 89251"}}, "geometry": {"type": "Point", "coordinates": [95.53926111423574, -15.84370684067704]}}, {"type": "Feature", "properties": {"norad_id": 29228, "name": "RESURS-DK 1", "group": "resource", "lat": -65.25363346982459, "lon": 73.78002160127534, "alt_km": 531.3960099646147, "timestamp": "2025-12-03T06:58:42.897790+00:00", "meta": {"OBJECT_NAME": "RESURS-DK 1", "OBJECT_ID": "2006-021A", "EPOCH": "2025-12-02T20:11:48.097824", "MEAN_MOTION": 15.12068181, "ECCENTRICITY": 0.0007822, "INCLINATION": 69.9327, "RA_OF_ASC_NODE": 127.4146, "ARG_OF_PERICENTER": 265.8783, "MEAN_ANOMALY": 94.1489, "EPHEMERIS_TYPE": 0, "CLASSIFICATION_TYPE": "U", "NORAD_CAT_ID": 29228, "ELEMENT_SET_NO": 999, "REV_AT_EPOCH": 7288, "BSTAR": 0.00025634, "MEAN_MOTION_DOT": 4.317e-05, "MEAN_MOTION_DDOT": 0}, "tle": {"line1": "1 29228U 06021A   25336.84152891  .00004317  00000+0  25634-3 0  9996", "line2": "2 29228  69.9327 127.4146 0007822 265.8783  94.1489 15.12068181 72887"}}, "geometry": {"type": "Point", "coordinates": [73.78002160127534, -65.25363346982459]}}, {"type": "Feature", "properties": {"norad_id": 29268, "name": "ARIRANG-2 (KOMPSAT-2)", "group": "resource", "lat": 75.25534057258575, "lon": 17.73303091825852, "alt_km": 676.8523856367583, "timestamp": "2025-12-03T06:58:42.897807+00:00", "meta": {"OBJECT_NAME": "ARIRANG-2 (KOMPSAT-2)", "OBJECT_ID": "2006-031A", "EPOCH": "2025-12-02T21:08:54.047040", "MEAN_MOTION": 14.64479181, "ECCENTRICITY": 0.0014037, "INCLINATION": 97.8265, "RA_OF_ASC_NODE": 165.8346, "ARG_OF_PERICENTER": 341.7244, "MEAN_ANOMALY": 122.5202, "EPHEMERIS_TYPE": 0, "CLASSIFICATION_TYPE": "U", "NORAD_CAT_ID": 29268, "ELEMENT_SET_NO": 999, "REV_AT_EPOCH": 3274, "BSTAR": 0.00011222, "MEAN_MOTION_DOT": 5.5e-06, "MEAN_MOTION_DDOT": 0}, "tle": {"line1": "1 29268U 06031A   25336.88118110  .00000550  00000+0  11222-3 0  9994", "line2": "2 29268  97.8265 165.8346 0014037 341.7244 122.5202 14.64479181 32744"}}, "geometry": {"type": "Point", "coordinates": [17.73303091825852, 75.25534057258575]}}, {"type": "Feature", "properties": {"norad_id": 29709, "name": "LAPAN-TUBSAT", "group": "resource", "lat": 36.85970419845535, "lon": -38.89527734482562, "alt_km": 604.866567807022, "timestamp": "2025-12-03T06:58:42.897830+00:00", "meta": {"OBJECT_NAME": "LAPAN-TUBSAT", "OBJECT_ID": "2007-001A", "EPOCH": "2025-12-02T21:06:45.550368", "MEAN_MOTION": 14.85646112, "ECCENTRICITY": 0.0013586, "INCLINATION": 98.1251, "RA_OF_ASC_NODE": 326.8339, "ARG_OF_PERICENTER": 103.2719, "MEAN_ANOMALY": 257.0012, "EPHEMERIS_TYPE": 0, "CLASSIFICATION_TYPE": "U", "NORAD_CAT_ID": 29709, "ELEMENT_SET_NO": 999, "REV_AT_EPOCH": 2200, "BSTAR": 0.000116, "MEAN_MOTION_DOT": 9.49e-06, "MEAN_MOTION_DDOT": 0}, "tle": {"line1": "1 29709U 07001A   25336.87969387  .00000949  00000+0  11600-3 0  9993", "line2": "2 29709  98.1251 326.8339 0013586 103.2719 257.0012 14.85646112 22004"}}, "geometry": {"type": "Point", "coordinates": [-38.89527734482562, 36.85970419845535]}}, {"type": "Feature", "properties": {"norad_id": 31113, "name": "HAIYANG-1B", "group": "resource", "lat": -19.470555928988723, "lon": -35.070840474899505, "alt_km": 792.4327055759204, "timestamp": "2025-12-03T06:58:42.897849+00:00", "meta": {"OBJECT_NAME": "HAIYANG-1B", "OBJECT_ID": "2007-010A", "EPOCH": "2025-12-02T19:19:23.409120", "MEAN_MOTION": 14.30959515, "ECCENTRICITY": 0.0014604, "INCLINATION": 98.3308, "RA_OF_ASC_NODE": 321.4942, "ARG_OF_PERICENTER": 65.4415, "MEAN_ANOMALY": 294.8289, "EPHEMERIS_TYPE": 0, "CLASSIFICATION_TYPE": "U", "NORAD_CAT_ID": 31113, "ELEMENT_SET_NO": 999, "REV_AT_EPOCH": 97254, "BSTAR": 8.0696e-05, "MEAN_MOTION_DOT": 1.71e-06, "MEAN_MOTION_DDOT": 0}, "tle": {"line1": "1 31113U 07010A   25336.80513205  .00000171  00000+0  80696-4 0  9991", "line2": "2 31113  98.3308 321.4942 0014604  65.4415 294.8289 14.30959515972548"}}, "geometry": {"type": "Point", "coordinates": [-35.070840474899505, -19.470555928988723]}}, {"type": "Feature", "properties": {"norad_id": 31598, "name": "COSMO-SKYMED 1", "group": "resource", "lat": 12.130472080199072, "lon": 160.92158430008104, "alt_km": 581.3002976379003, "timestamp": "2025-12-03T06:58:42.897862+00:00", "meta": {"OBJECT_NAME": "COSMO-SKYMED 1", "OBJECT_ID": "2007-023A", "EPOCH": "2025-12-02T19:41:04.117920", "MEAN_MOTION": 14.95649302, "ECCENTRICITY": 0.0001473, "INCLINATION": 97.8844, "RA_OF_ASC_NODE": 162.155, "ARG_OF_PERICENTER": 82.4949, "MEAN_ANOMALY": 277.6439, "EPHEMERIS_TYPE": 0, "CLASSIFICATION_TYPE": "U", "NORAD_CAT_ID": 31598, "ELEMENT_SET_NO": 999, "REV_AT_EPOCH": 42, "BSTAR": 0.00044788, "MEAN_MOTION_DOT": 4.921e-05, "MEAN_MOTION_DDOT": 0}, "tle": {"line1": "1 31598U 07023A   25336.82018655  .00004921  00000+0  44788-3 0  9991", "line2": "2 31598  97.8844 162.1550 0001473  82.4949 277.6439 14.95649302   426"}}, "geometry": {"type": "Point", "coordinates": [160.92158430008104, 12.130472080199072]}}, {"type": "Feature", "properties": {"norad_id": 31698, "name": "TERRASAR-X", "group": "resource", "lat": -47.18484060350917, "lon": -9.076327531636537, "alt_km": 516.1266746372721, "timestamp": "2025-12-03T06:58:42.897873+00:00", "meta": {"OBJECT_NAME": "TERRASAR-X", "OBJECT_ID": "2007-026A", "EPOCH": "2025-12-02T13:47:56.806656", "MEAN_MOTION": 15.19154546, "ECCENTRICITY": 0.0001916, "INCLINATION": 97.4445, "RA_OF_ASC_NODE": 342.105, "ARG_OF_PERICENTER": 86.6664, "MEAN_ANOMALY": 273.4789, "EPHEMERIS_TYPE": 0, "CLASSIFICATION_TYPE": "U", "NORAD_CAT_ID": 31698, "ELEMENT_SET_NO": 999, "REV_AT_EPOCH": 2337, "BSTAR": 8.5350444e-05, "MEAN_MOTION_DOT": 1.726e-05, "MEAN_MOTION_DDOT": 0}, "tle": {"line1": "1 31698U 07026A   25336.57496304  .00001726  00000+0  85350-4 0  9999", "line2": "2 31698  97.4445 342.1050 0001916  86.6664 273.4789 15.19154546 23376"}}, "geometry": {"type": "Point", "coordinates": [-9.076327531636537, -47.18484060350917]}}, {"type": "Feature", "properties": {"norad_id": 32060, "name": "WORLDVIEW-1 (WV-1)", "group": "resource", "lat": 49.59860390753251, "lon": -76.32984205479391, "alt_km": 487.62006413166455, "timestamp": "2025-12-03T06:58:42.897883+00:00", "meta": {"OBJECT_NAME": "WORLDVIEW-1 (WV-1)", "OBJECT_ID": "2007-041A", "EPOCH": "2025-12-02T19:23:01.581216", "MEAN_MOTION": 15.24426871, "ECCENTRICITY": 7.35e-05, "INCLINATION": 97.3835, "RA_OF_ASC_NODE": 94.4304, "ARG_OF_PERICENTER": 93.3394, "MEAN_ANOMALY": 266.7928, "EPHEMERIS_TYPE": 0, "CLASSIFICATION_TYPE": "U", "NORAD_CAT_ID": 32060, "ELEMENT_SET_NO": 999, "REV_AT_EPOCH": 1296, "BSTAR": 0.00047079, "MEAN_MOTION_DOT": 0.00011486, "MEAN_MOTION_DDOT": 0}, "tle": {"line1": "1 32060U 07041A   25336.80765719  .00011486  00000+0  47079-3 0  9994", "line2": "2 32060  97.3835  94.4304 0000735  93.3394 266.7928 15.24426871 12966"}}, "geometry": {"type": "Point", "coordinates": [-76.32984205479391, 49.59860390753251]}}]}